[{"OBJECT_NAME":"STARLINK-32004","OBJECT_ID":"2024-120S","EPOCH":"2026-03-09T22:11:39.344352","MEAN_MOTION":15.3019266,"ECCENTRICITY":0.00010208,"INCLINATION":53.1582,"RA_OF_ASC_NODE":318.7253,"ARG_OF_PERICENTER":99.1385,"MEAN_ANOMALY":260.9731,"EPHEMERIS_TYPE":0,"CLASSIFICATION_TYPE":"U","NORAD_CAT_ID":60151,"ELEMENT_SET_NO":999,"REV_AT_EPOCH":9649,"BSTAR":0.00024793158,"MEAN_MOTION_DOT":6.989e-5,"MEAN_MOTION_DDOT":0},{"OBJECT_NAME":"OBJECT A","OBJECT_ID":"2025-234A","EPOCH":"2026-03-09T23:03:34.210368","MEAN_MOTION":15.32505956,"ECCENTRICITY":0.00130678,"INCLINATION":97.4388,"RA_OF_ASC_NODE":139.352,"ARG_OF_PERICENTER":148.634,"MEAN_ANOMALY":211.5684,"EPHEMERIS_TYPE":0,"CLASSIFICATION_TYPE":"U","NORAD_CAT_ID":66053,"ELEMENT_SET_NO":999,"REV_AT_EPOCH":2164,"BSTAR":0.0014840662,"MEAN_MOTION_DOT":0.00046856,"MEAN_MOTION_DDOT":0}]
